BLUEBON                 
1 62688U 25009CH  26068.70316231  .00010452  00000+0  37313-3 0  9992
2 62688  97.4017 152.2033 0001193  43.3900 316.7434 15.29047253 63767
STARLINK-35992          
1 66852U 25281E   26068.14367243  .00025309  00000+0  92608-3 0  9993
2 66852  43.0051 346.4192 0002046 256.9888 103.0736 15.27579202 16107
